CCSDS_OMM_VERS = 2.0
CREATION_DATE  = 
ORIGINATOR     = 

OBJECT_NAME    = SHIYAN-30 04
OBJECT_ID      = 2026-048B
CENTER_NAME    = EARTH
REF_FRAME      = TEME
TIME_SYSTEM    = UTC
MEAN_ELEMENT_THEORY = SGP/SGP4

EPOCH          = 2026-03-20T09:57:09.399168
MEAN_MOTION    = 14.91690424
ECCENTRICITY   = .0002474
INCLINATION    = 34.9914
RA_OF_ASC_NODE = 79.7807
ARG_OF_PERICENTER = 297.4914
MEAN_ANOMALY   = 62.5539

EPHEMERIS_TYPE = 0
CLASSIFICATION_TYPE = U
NORAD_CAT_ID   = 68140
ELEMENT_SET_NO = 999
REV_AT_EPOCH   = 110
BSTAR          = .21312E-3
MEAN_MOTION_DOT = .2158E-4
MEAN_MOTION_DDOT = 0

CCSDS_OMM_VERS = 2.0
CREATION_DATE  = 
ORIGINATOR     = 

OBJECT_NAME    = STARLINK-36604
OBJECT_ID      = 2026-049A
CENTER_NAME    = EARTH
REF_FRAME      = TEME
TIME_SYSTEM    = UTC
MEAN_ELEMENT_THEORY = SGP/SGP4

EPOCH          = 2026-03-19T13:52:52.185792
MEAN_MOTION    = 16.01563866
ECCENTRICITY   = .00005554
INCLINATION    = 97.2797
RA_OF_ASC_NODE = 98.1391
ARG_OF_PERICENTER = 65.4234
MEAN_ANOMALY   = 294.7104

EPHEMERIS_TYPE = 0
CLASSIFICATION_TYPE = U
NORAD_CAT_ID   = 68142
ELEMENT_SET_NO = 999
REV_AT_EPOCH   = 96
BSTAR          = -.10855232E-2
MEAN_MOTION_DOT = -.601426E-2
MEAN_MOTION_DDOT = .12953804E-3

CCSDS_OMM_VERS = 2.0
CREATION_DATE  = 
ORIGINATOR     = 

OBJECT_NAME    = STARLINK-36995
OBJECT_ID      = 2026-049B
CENTER_NAME    = EARTH
REF_FRAME      = TEME
TIME_SYSTEM    = UTC
MEAN_ELEMENT_THEORY = SGP/SGP4

EPOCH          = 2026-03-19T06:22:43.389408
MEAN_MOTION    = 16.02629136
ECCENTRICITY   = .0000959
INCLINATION    = 97.2800
RA_OF_ASC_NODE = 97.7985
ARG_OF_PERICENTER = 13.3742
MEAN_ANOMALY   = 346.7563

EPHEMERIS_TYPE = 0
CLASSIFICATION_TYPE = U
NORAD_CAT_ID   = 68143
ELEMENT_SET_NO = 999
REV_AT_EPOCH   = 91
BSTAR          = -.90105E-3
MEAN_MOTION_DOT = -.531426E-2
MEAN_MOTION_DDOT = .10413E-3

CCSDS_OMM_VERS = 2.0
CREATION_DATE  = 
ORIGINATOR     = 

OBJECT_NAME    = STARLINK-37020
OBJECT_ID      = 2026-049C
CENTER_NAME    = EARTH
REF_FRAME      = TEME
TIME_SYSTEM    = UTC
MEAN_ELEMENT_THEORY = SGP/SGP4

EPOCH          = 2026-03-19T12:20:37.301568
MEAN_MOTION    = 16.04472428
ECCENTRICITY   = .00004674
INCLINATION    = 97.2794
RA_OF_ASC_NODE = 98.0724
ARG_OF_PERICENTER = 166.1555
MEAN_ANOMALY   = 193.9739

EPHEMERIS_TYPE = 0
CLASSIFICATION_TYPE = U
NORAD_CAT_ID   = 68144
ELEMENT_SET_NO = 999
REV_AT_EPOCH   = 95
BSTAR          = .15013758E-2
MEAN_MOTION_DOT = .978873E-2
MEAN_MOTION_DDOT = .50884471E-3

CCSDS_OMM_VERS = 2.0
CREATION_DATE  = 
ORIGINATOR     = 

OBJECT_NAME    = STARLINK-36244
OBJECT_ID      = 2026-049D
CENTER_NAME    = EARTH
REF_FRAME      = TEME
TIME_SYSTEM    = UTC
MEAN_ELEMENT_THEORY = SGP/SGP4

EPOCH          = 2026-03-19T00:20:18.810240
MEAN_MOTION    = 16.04211622
ECCENTRICITY   = .0000395
INCLINATION    = 97.2798
RA_OF_ASC_NODE = 97.5283
ARG_OF_PERICENTER = 95.7237
MEAN_ANOMALY   = 264.4089

EPHEMERIS_TYPE = 0
CLASSIFICATION_TYPE = U
NORAD_CAT_ID   = 68145
ELEMENT_SET_NO = 999
REV_AT_EPOCH   = 87
BSTAR          = -.62437E-3
MEAN_MOTION_DOT = -.404794E-2
MEAN_MOTION_DDOT = .63915E-4

CCSDS_OMM_VERS = 2.0
CREATION_DATE  = 
ORIGINATOR     = 

OBJECT_NAME    = STARLINK-36980
OBJECT_ID      = 2026-049E
CENTER_NAME    = EARTH
REF_FRAME      = TEME
TIME_SYSTEM    = UTC
MEAN_ELEMENT_THEORY = SGP/SGP4

EPOCH          = 2026-03-19T13:49:53.120928
MEAN_MOTION    = 16.02210843
ECCENTRICITY   = .00004697
INCLINATION    = 97.2792
RA_OF_ASC_NODE = 98.1417
ARG_OF_PERICENTER = 81.7263
MEAN_ANOMALY   = 278.4070

EPHEMERIS_TYPE = 0
CLASSIFICATION_TYPE = U
NORAD_CAT_ID   = 68146
ELEMENT_SET_NO = 999
REV_AT_EPOCH   = 96
BSTAR          = -.10788069E-2
MEAN_MOTION_DOT = -.620452E-2
MEAN_MOTION_DDOT = .13835533E-3

CCSDS_OMM_VERS = 2.0
CREATION_DATE  = 
ORIGINATOR     = 

OBJECT_NAME    = STARLINK-37055
OBJECT_ID      = 2026-049F
CENTER_NAME    = EARTH
REF_FRAME      = TEME
TIME_SYSTEM    = UTC
MEAN_ELEMENT_THEORY = SGP/SGP4

EPOCH          = 2026-03-19T12:21:42.575040
MEAN_MOTION    = 16.02010555
ECCENTRICITY   = .0002763
INCLINATION    = 97.2798
RA_OF_ASC_NODE = 98.0710
ARG_OF_PERICENTER = 38.6438
MEAN_ANOMALY   = 321.5038

EPHEMERIS_TYPE = 0
CLASSIFICATION_TYPE = U
NORAD_CAT_ID   = 68147
ELEMENT_SET_NO = 999
REV_AT_EPOCH   = 95
BSTAR          = -.62842E-3
MEAN_MOTION_DOT = -.358165E-2
MEAN_MOTION_DDOT = .4958E-4

CCSDS_OMM_VERS = 2.0
CREATION_DATE  = 
ORIGINATOR     = 

OBJECT_NAME    = STARLINK-36981
OBJECT_ID      = 2026-049G
CENTER_NAME    = EARTH
REF_FRAME      = TEME
TIME_SYSTEM    = UTC
MEAN_ELEMENT_THEORY = SGP/SGP4

EPOCH          = 2026-03-19T12:18:54.316224
MEAN_MOTION    = 16.00484791
ECCENTRICITY   = .0009222
INCLINATION    = 97.2791
RA_OF_ASC_NODE = 98.0740
ARG_OF_PERICENTER = 123.9534
MEAN_ANOMALY   = 236.2623

EPHEMERIS_TYPE = 0
CLASSIFICATION_TYPE = U
NORAD_CAT_ID   = 68148
ELEMENT_SET_NO = 999
REV_AT_EPOCH   = 95
BSTAR          = -.87998E-2
MEAN_MOTION_DOT = -.4741621E-1
MEAN_MOTION_DDOT = .76603E-2

CCSDS_OMM_VERS = 2.0
CREATION_DATE  = 
ORIGINATOR     = 

OBJECT_NAME    = STARLINK-36992
OBJECT_ID      = 2026-049H
CENTER_NAME    = EARTH
REF_FRAME      = TEME
TIME_SYSTEM    = UTC
MEAN_ELEMENT_THEORY = SGP/SGP4

EPOCH          = 2026-03-19T12:18:40.975200
MEAN_MOTION    = 16.03449672
ECCENTRICITY   = .00058926
INCLINATION    = 97.2794
RA_OF_ASC_NODE = 98.0748
ARG_OF_PERICENTER = 16.2793
MEAN_ANOMALY   = 343.8675

EPHEMERIS_TYPE = 0
CLASSIFICATION_TYPE = U
NORAD_CAT_ID   = 68149
ELEMENT_SET_NO = 999
REV_AT_EPOCH   = 95
BSTAR          = .90936275E-3
MEAN_MOTION_DOT = .56212E-2
MEAN_MOTION_DDOT = .14894956E-3

CCSDS_OMM_VERS = 2.0
CREATION_DATE  = 
ORIGINATOR     = 

OBJECT_NAME    = STARLINK-37060
OBJECT_ID      = 2026-049J
CENTER_NAME    = EARTH
REF_FRAME      = TEME
TIME_SYSTEM    = UTC
MEAN_ELEMENT_THEORY = SGP/SGP4

EPOCH          = 2026-03-19T12:18:16.376256
MEAN_MOTION    = 16.03397341
ECCENTRICITY   = .000386
INCLINATION    = 97.2790
RA_OF_ASC_NODE = 98.0753
ARG_OF_PERICENTER = 339.2818
MEAN_ANOMALY   = 20.8305

EPHEMERIS_TYPE = 0
CLASSIFICATION_TYPE = U
NORAD_CAT_ID   = 68150
ELEMENT_SET_NO = 999
REV_AT_EPOCH   = 95
BSTAR          = .83559E-3
MEAN_MOTION_DOT = .514433E-2
MEAN_MOTION_DDOT = .12358E-3

CCSDS_OMM_VERS = 2.0
CREATION_DATE  = 
ORIGINATOR     = 

OBJECT_NAME    = STARLINK-37073
OBJECT_ID      = 2026-049K
CENTER_NAME    = EARTH
REF_FRAME      = TEME
TIME_SYSTEM    = UTC
MEAN_ELEMENT_THEORY = SGP/SGP4

EPOCH          = 2026-03-19T12:17:46.658976
MEAN_MOTION    = 16.03149567
ECCENTRICITY   = .0000583
INCLINATION    = 97.2790
RA_OF_ASC_NODE = 98.0750
ARG_OF_PERICENTER = 352.5845
MEAN_ANOMALY   = 7.5426

EPHEMERIS_TYPE = 0
CLASSIFICATION_TYPE = U
NORAD_CAT_ID   = 68151
ELEMENT_SET_NO = 999
REV_AT_EPOCH   = 95
BSTAR          = -.81365E-3
MEAN_MOTION_DOT = -.494902E-2
MEAN_MOTION_DDOT = .91744E-4

